{
  "type": "FeatureCollection",
  "features": [
    {
      "type": "Feature",
      "properties": {
        "norad_id": 36744,
        "name": "COMS 1",
        "group": "weather",
        "lat": 1.099094556140624,
        "lon": 92.19548192315702,
        "alt_km": 35789.24432373884,
        "timestamp": "2025-12-17T15:50:09.419313+00:00",
        "meta_object_name": "COMS 1",
        "meta_object_id": "2010-032A",
        "meta_epoch": "2025-12-16T22:05:51.684576",
        "meta_mean_motion": 1.00271478,
        "meta_eccentricity": 7.445e-05,
        "meta_inclination": 4.3505,
        "meta_ra_of_asc_node": 77.9521,
        "meta_arg_of_pericenter": 204.0252,
        "meta_mean_anomaly": 263.4629,
        "meta_ephemeris_type": 0,
        "meta_classification_type": "U",
        "meta_norad_cat_id": 36744,
        "meta_element_set_no": 999,
        "meta_rev_at_epoch": 4926,
        "meta_bstar": 0,
        "meta_mean_motion_dot": -3.23e-06,
        "meta_mean_motion_ddot": 0,
        "tle_line1": "1 36744U 10032A   25350.92073709 -.00000323  00000+0  00000+0 0  9999",
        "tle_line2": "2 36744   4.3505  77.9521 0000744 204.0252 263.4629  1.00271478 49267"
      },
      "geometry": {
        "type": "Point",
        "coordinates": [
          92.19548192315702,
          1.099094556140624
        ]
      }
    },
    {
      "type": "Feature",
      "properties": {
        "norad_id": 37214,
        "name": "FENGYUN 3B",
        "group": "weather",
        "lat": -58.701549243836126,
        "lon": -163.42226631571697,
        "alt_km": 853.8473693656915,
        "timestamp": "2025-12-17T15:50:09.419326+00:00",
        "meta_object_name": "FENGYUN 3B",
        "meta_object_id": "2010-059A",
        "meta_epoch": "2025-12-17T06:32:27.182112",
        "meta_mean_motion": 14.1479035,
        "meta_eccentricity": 0.00218351,
        "meta_inclination": 98.9907,
        "meta_ra_of_asc_node": 31.2818,
        "meta_arg_of_pericenter": 344.8119,
        "meta_mean_anomaly": 83.7743,
        "meta_ephemeris_type": 0,
        "meta_classification_type": "U",
        "meta_norad_cat_id": 37214,
        "meta_element_set_no": 999,
        "meta_rev_at_epoch": 78170,
        "meta_bstar": 4.8098179e-05,
        "meta_mean_motion_dot": 4.7e-07,
        "meta_mean_motion_ddot": 0,
        "tle_line1": "1 37214U 10059A   25351.27253683  .00000047  00000+0  48098-4 0  9997",
        "tle_line2": "2 37214  98.9907  31.2818 0021835 344.8119  83.7743 14.14790350781702"
      },
      "geometry": {
        "type": "Point",
        "coordinates": [
          -163.42226631571697,
          -58.701549243836126
        ]
      }
    },
    {
      "type": "Feature",
      "properties": {
        "norad_id": 37849,
        "name": "SUOMI NPP",
        "group": "weather",
        "lat": 15.323413078341936,
        "lon": 111.38358677549289,
        "alt_km": 826.6846946047917,
        "timestamp": "2025-12-17T15:50:09.419337+00:00",
        "meta_object_name": "SUOMI NPP",
        "meta_object_id": "2011-061A",
        "meta_epoch": "2025-12-17T08:17:51.415872",
        "meta_mean_motion": 14.19515553,
        "meta_eccentricity": 0.00023796,
        "meta_inclination": 98.7778,
        "meta_ra_of_asc_node": 288.6459,
        "meta_arg_of_pericenter": 112.1218,
        "meta_mean_anomaly": 248.0211,
        "meta_ephemeris_type": 0,
        "meta_classification_type": "U",
        "meta_norad_cat_id": 37849,
        "meta_element_set_no": 999,
        "meta_rev_at_epoch": 73264,
        "meta_bstar": 5.4760828e-05,
        "meta_mean_motion_dot": 7.1e-07,
        "meta_mean_motion_ddot": 0,
        "tle_line1": "1 37849U 11061A   25351.34573398  .00000071  00000+0  54761-4 0  9992",
        "tle_line2": "2 37849  98.7778 288.6459 0002379 112.1218 248.0211 14.19515553732647"
      },
      "geometry": {
        "type": "Point",
        "coordinates": [
          111.38358677549289,
          15.323413078341936
        ]
      }
    },
    {
      "type": "Feature",
      "properties": {
        "norad_id": 38552,
        "name": "METEOSAT-10 (MSG-3)",
        "group": "weather",
        "lat": -4.215647739717385,
        "lon": -35.70884200840777,
        "alt_km": 35782.43068415709,
        "timestamp": "2025-12-17T15:50:09.419354+00:00",
        "meta_object_name": "METEOSAT-10 (MSG-3)",
        "meta_object_id": "2012-035B",
        "meta_epoch": "2025-12-16T21:55:05.046240",
        "meta_mean_motion": 1.00276114,
        "meta_eccentricity": 7.064e-05,
        "meta_inclination": 4.2382,
        "meta_ra_of_asc_node": 61.7135,
        "meta_arg_of_pericenter": 267.1747,
        "meta_mean_anomaly": 85.9132,
        "meta_ephemeris_type": 0,
        "meta_classification_type": "U",
        "meta_norad_cat_id": 38552,
        "meta_element_set_no": 999,
        "meta_rev_at_epoch": 4902,
        "meta_bstar": 0,
        "meta_mean_motion_dot": 1.6e-07,
        "meta_mean_motion_ddot": 0,
        "tle_line1": "1 38552U 12035B   25350.91325285  .00000016  00000+0  00000+0 0  9999",
        "tle_line2": "2 38552   4.2382  61.7135 0000706 267.1747  85.9132  1.00276114 49029"
      },
      "geometry": {
        "type": "Point",
        "coordinates": [
          -35.70884200840777,
          -4.215647739717385
        ]
      }
    },
    {
      "type": "Feature",
      "properties": {
        "norad_id": 38771,
        "name": "METOP-B",
        "group": "weather",
        "lat": 49.1775527378494,
        "lon": 31.35024404460612,
        "alt_km": 815.8394236081704,
        "timestamp": "2025-12-17T15:50:09.419366+00:00",
        "meta_object_name": "METOP-B",
        "meta_object_id": "2012-049A",
        "meta_epoch": "2025-12-17T07:09:16.621056",
        "meta_mean_motion": 14.21410053,
        "meta_eccentricity": 0.00030723,
        "meta_inclination": 98.6794,
        "meta_ra_of_asc_node": 41.1795,
        "meta_arg_of_pericenter": 134.45,
        "meta_mean_anomaly": 225.6929,
        "meta_ephemeris_type": 0,
        "meta_classification_type": "U",
        "meta_norad_cat_id": 38771,
        "meta_element_set_no": 999,
        "meta_rev_at_epoch": 68742,
        "meta_bstar": 7.5178395e-05,
        "meta_mean_motion_dot": 1.21e-06,
        "meta_mean_motion_ddot": 0,
        "tle_line1": "1 38771U 12049A   25351.29810904  .00000121  00000+0  75178-4 0  9996",
        "tle_line2": "2 38771  98.6794  41.1795 0003072 134.4500 225.6929 14.21410053687420"
      },
      "geometry": {
        "type": "Point",
        "coordinates": [
          31.35024404460612,
          49.1775527378494
        ]
      }
    },
    {
      "type": "Feature",
      "properties": {
        "norad_id": 39216,
        "name": "INSAT-3D",
        "group": "weather",
        "lat": 0.2429231183568382,
        "lon": 93.53605029943262,
        "alt_km": 35791.97531122135,
        "timestamp": "2025-12-17T15:50:09.419379+00:00",
        "meta_object_name": "INSAT-3D",
        "meta_object_id": "2013-038B",
        "meta_epoch": "2025-12-17T05:22:53.239584",
        "meta_mean_motion": 1.00268019,
        "meta_eccentricity": 0.00012236,
        "meta_inclination": 1.4559,
        "meta_ra_of_asc_node": 84.9481,
        "meta_arg_of_pericenter": 166.4706,
        "meta_mean_anomaly": 44.895,
        "meta_ephemeris_type": 0,
        "meta_classification_type": "U",
        "meta_norad_cat_id": 39216,
        "meta_element_set_no": 999,
        "meta_rev_at_epoch": 4525,
        "meta_bstar": 0,
        "meta_mean_motion_dot": -3.16e-06,
        "meta_mean_motion_ddot": 0,
        "tle_line1": "1 39216U 13038B   25351.22422731 -.00000316  00000+0  00000+0 0  9994",
        "tle_line2": "2 39216   1.4559  84.9481 0001223 166.4706  44.8950  1.00268019 45252"
      },
      "geometry": {
        "type": "Point",
        "coordinates": [
          93.53605029943262,
          0.2429231183568382
        ]
      }
    },
    {
      "type": "Feature",
      "properties": {
        "norad_id": 39260,
        "name": "FENGYUN 3C",
        "group": "weather",
        "lat": -15.914646905299108,
        "lon": 146.66194723695008,
        "alt_km": 834.5198573140233,
        "timestamp": "2025-12-17T15:50:09.419390+00:00",
        "meta_object_name": "FENGYUN 3C",
        "meta_object_id": "2013-052A",
        "meta_epoch": "2025-12-17T04:44:09.014784",
        "meta_mean_motion": 14.15697734,
        "meta_eccentricity": 0.00145222,
        "meta_inclination": 98.4767,
        "meta_ra_of_asc_node": 328.6591,
        "meta_arg_of_pericenter": 182.9564,
        "meta_mean_anomaly": 177.1527,
        "meta_ephemeris_type": 0,
        "meta_classification_type": "U",
        "meta_norad_cat_id": 39260,
        "meta_element_set_no": 999,
        "meta_rev_at_epoch": 63281,
        "meta_bstar": 7.7037708e-05,
        "meta_mean_motion_dot": 1.1e-06,
        "meta_mean_motion_ddot": 0,
        "tle_line1": "1 39260U 13052A   25351.19732656  .00000110  00000+0  77038-4 0  9996",
        "tle_line2": "2 39260  98.4767 328.6591 0014522 182.9564 177.1527 14.15697734632813"
      },
      "geometry": {
        "type": "Point",
        "coordinates": [
          146.66194723695008,
          -15.914646905299108
        ]
      }
    }
  ]
}